GPS BIIRM-3 (PRN 12)    
1 29601U 06052A   25333.98383759  .00000038  00000+0  00000+0 0  9998
2 29601  54.9734 221.9046 0087429  87.3088 273.7660  2.00572573139410
GPS BIIRM-4 (PRN 15)    
1 32260U 07047A   25333.79058106  .00000011  00000+0  00000+0 0  9993
2 32260  53.9462  88.2935 0164410  85.0909 276.7728  2.00564988132812
GPS BIIRM-5 (PRN 29)    
1 32384U 07062A   25334.07405993 -.00000039  00000+0  00000+0 0  9990
2 32384  55.1935 282.1541 0032199 162.9568 172.3090  2.00576520131514
GPS BIIRM-6 (PRN 07)    
1 32711U 08012A   25334.70811341  .00000128  00000+0  00000+0 0  9996
2 32711  54.4753 157.8533 0201976 244.8175 113.1226  2.00564962129778
GPS BIIRM-8 (PRN 05)    
1 35752U 09043A   25334.20039944 -.00000065  00000+0  00000+0 0  9996
2 35752  56.0822  35.2779 0052162  82.1106 289.2836  2.00566338119376
GPS BIIF-1  (PRN 25)    
1 36585U 10022A   25334.27188649  .00000051  00000+0  00000+0 0  9998
2 36585  54.3027 216.5768 0125573  64.9352 116.9551  2.00552472113603
GPS BIIF-3  (PRN 24)    
1 38833U 12053A   25333.88833293  .00000124  00000+0  00000+0 0  9991
2 38833  53.5554 151.7651 0175415  63.8108 298.0230  2.00564833 95446
GPS BIIF-4  (PRN 27)    
1 39166U 13023A   25334.25076050 -.00000038  00000+0  00000+0 0  9996
2 39166  54.6630 277.0761 0137124  48.4776 312.6901  2.00565085 91895
